{"epoch":1784799577,"count":18318,"objects":[{"id":"58900","name":"LEMUR 2 VALHALLA","type":"PAYLOAD","l1":"1 58900U 24022B   26203.54821048  .00016915  00000-0  41621-3 0  9996","l2":"2 58900  97.4084  53.9852 0008432 357.9384   2.1826 15.40649804137713"},{"id":"58903","name":"LEMUR 2 CAEL","type":"PAYLOAD","l1":"1 58903U 24022E   26203.85172415  .00019795  00000-0  46482-3 0  9999","l2":"2 58903  97.4063  55.2932 0006297 340.1607  19.9394 15.42046949137838"},{"id":"59146","name":"LEMUR 2 JOHNNYTRUONG","type":"PAYLOAD","l1":"1 59146U 24043BA  26203.90159614  .00050008  00000-0  54921-3 0  9993","l2":"2 59146  97.5397 357.8950 0003662  66.7788 293.3855 15.63055792133615"},{"id":"60471","name":"LEMUR 2 TOMATOKECHUP","type":"PAYLOAD","l1":"1 60471U 24149D   26203.47303535  .00011500  00000-0  32304-3 0  9993","l2":"2 60471  97.3786 285.6244 0003443 109.2295 250.9322 15.36689210107588"},{"id":"60533","name":"LEMUR 2 STELLA","type":"PAYLOAD","l1":"1 60533U 24149BT  26203.68225838  .00011681  00000-0  67449-3 0  9992","l2":"2 60533  97.6726 286.3083 0001501 121.6728 238.4648 15.12482958105860"},{"id":"60536","name":"LEMUR 2 MARHISYAM","type":"PAYLOAD","l1":"1 60536U 24149BW  26203.21283061  .00010114  00000-0  59472-3 0  9993","l2":"2 60536  97.6869 286.3201 0002128  58.8291 301.3148 15.11867364105777"},{"id":"60576","name":"LEMUR 2 AHMED-ASRAR","type":"PAYLOAD","l1":"1 60576U 24149DN  26203.47669536  .00012174  00000-0  68476-3 0  9992","l2":"2 60576  97.6993 288.8178 0001846 178.9273 181.1962 15.13417372105904"},{"id":"60577","name":"LEMUR 2 LLOYD","type":"PAYLOAD","l1":"1 60577U 24149DP  26203.70409359  .00011184  00000-0  69451-3 0  9998","l2":"2 60577  97.6736 284.8654 0004125  51.6067 308.5532 15.09849237105751"},{"id":"60578","name":"LEMUR 2 SQUIRRELCOMM","type":"PAYLOAD","l1":"1 60578U 24149DQ  26203.17324855  .00006199  00000-0  41252-3 0  9996","l2":"2 60578  97.6700 283.9805 0003973 293.1589  66.9220 15.07496745105673"},{"id":"60579","name":"LEMUR 2 SIERRINI","type":"PAYLOAD","l1":"1 60579U 24149DR  26203.70630956  .00012520  00000-0  73970-3 0  9995","l2":"2 60579  97.6832 286.4706 0006057  70.5885 289.5999 15.11623778105826"},{"id":"62694","name":"LEMUR 2 WILSON","type":"PAYLOAD","l1":"1 62694U 25009CP  26203.16136626  .00002012  00000-0  18780-3 0  9999","l2":"2 62694  97.7015 281.0127 0001562 282.8389  77.2657 14.95296152 82584"},{"id":"62696","name":"LEMUR 2 STAR-FOX","type":"PAYLOAD","l1":"1 62696U 25009CR  26203.65049980  .00007956  00000-0  59690-3 0  9998","l2":"2 62696  97.6903 285.0039 0001419  11.0222 349.1034 15.02914232 82884"},{"id":"62699","name":"LEMUR 2 ARIANNA","type":"PAYLOAD","l1":"1 62699U 25009CU  26203.18289883  .00008019  00000-0  60161-3 0  9993","l2":"2 62699  97.6845 284.2864 0001827  23.9997 336.1313 15.02911553 82815"},{"id":"62706","name":"LEMUR 2 ALISIA","type":"PAYLOAD","l1":"1 62706U 25009DB  26203.68623359  .00008005  00000-0  59508-3 0  9995","l2":"2 62706  97.6958 285.6256 0005015 109.8990 250.2776 15.03251783105491"},{"id":"62711","name":"LEMUR 2 ROUNDTRIPPER","type":"PAYLOAD","l1":"1 62711U 25009DG  26203.68615043  .00008183  00000-0  59141-3 0  9992","l2":"2 62711  97.7239 286.3251 0004314  49.3473 310.8127 15.04310860 82960"},{"id":"62712","name":"LEMUR 2 MYNAMEISJEFF","type":"PAYLOAD","l1":"1 62712U 25009DH  26203.48512786  .00008566  00000-0  61900-3 0  9992","l2":"2 62712  97.7284 286.5267 0004318  82.8993 277.2724 15.04300993 82935"}]}